{
  "vets": [
    {
      "id": 1,
      "company": "K & R Consulting",
      "street": "1820 Co Rd 222",
      "city": "Austin",
      "state": "TX",
      "zipcode": 78672,
      "lastInspection": "2017-06-02",
      "position": {
        "lat": 30.2572,
        "lng": -97.9431
      }
    },
    {
      "id": 2,
      "company": "Fall Creek",
      "street": "1820 Co Rd 222",
      "city": "Amarillo",
      "state": "TX",
      "zipcode": 78672,
      "lastInspection": "2017-06-04",
      "position": {
        "lat": 35.4767,
        "lng": -101.724067
      }
    },
    {
      "id": 3,
      "company": "Clients First",
      "street": "1000 Ballpark Way #315",
      "city": "Plano",
      "state": "TX",
      "zipcode": 76011,
      "lastInspection": "2018-06-06",
      "position": {
        "lat": 33.2104,
        "lng": -96.893
      }
    },
    {
      "id": 4,
      "company": "Chosen Foods",
      "street": "1747 Hancock St.",
      "city": "Plano",
      "state": "TX",
      "zipcode": 78704,
      "lastInspection": "2018-06-08",
      "position": {
        "lat": 33.053999,
        "lng": -96.4651
      }
    },
    {
      "id": 5,
      "company": "Dataquest",
      "street": "123 Main St",
      "city": "Austin",
      "state": "TX",
      "zipcode": 78702,
      "lastInspection": "2018-06-06",
      "position": {
        "lat": 30.3572,
        "lng": -97.9531
      }
    },
    {
      "id": 6,
      "company": "Firewire",
      "street": "456 Main St",
      "city": "Austin",
      "state": "TX",
      "zipcode": 78704,
      "lastInspection": "2018-06-03",
      "position": {
        "lat": 30.4972,
        "lng": -97.6631
      }
    },
    {
      "id": 7,
      "company": "Chosen Foods",
      "street": "123 Main St",
      "city": "Austin",
      "state": "TX",
      "zipcode": 78702,
      "lastInspection": "2018-06-06",
      "position": {
        "lat": 30.3072,
        "lng": -97.7031
      }
    },
    {
      "id": 8,
      "company": "Doctor",
      "street": "123 Main",
      "city": "Austin",
      "state": "TX",
      "zipcode": 78702,
      "lastInspection": "2018-06-08",
      "position": {
        "lat": 30.248838,
        "lng": -97.5932
      }
    },
    {
      "id": 9,
      "company": "Doctor",
      "street": "123 Main St",
      "city": "Amarillo",
      "state": "TX",
      "zipcode": 78702,
      "lastInspection": "2018-06-08",
      "position": {
        "lat": 35.200745,
        "lng": -101.8333
      }
    },
    {
      "id": 10,
      "company": "Doctor",
      "street": "123 Main St",
      "city": "Plano",
      "state": "TX",
      "zipcode": 78702,
      "lastInspection": "2017-06-04",
      "position": {
        "lat": 33.04607,
        "lng": -96.688
      }
    },
    {
      "id": 11,
      "company": "Firewire",
      "street": "123 Main St",
      "city": "Plano",
      "state": "TX",
      "zipcode": 78702,
      "lastInspection": "2017-06-04",
      "position": {
        "lat": 33.017158,
        "lng": -96.4331
      }
    },
    {
      "id": 12,
      "company": "Chosen Foods",
      "street": "1820 Co Rd 222",
      "city": "Amarillo",
      "state": "TX",
      "zipcode": 78672,
      "lastInspection": "2017-06-04",
      "position": {
        "lat": 34.7767,
        "lng": -102.724067
      }
    },
    {
      "id": 13,
      "company": "Firewire",
      "street": "1820 Co Rd 222",
      "city": "Amarillo",
      "state": "TX",
      "zipcode": 78672,
      "lastInspection": "2017-06-04",
      "position": {
        "lat": 35.009753,
        "lng": -101.7240
      }
    },
    {
      "id": 14,
      "company": "Dataquest",
      "street": "1820 Co Rd 222",
      "city": "Amarillo",
      "state": "TX",
      "zipcode": 78672,
      "lastInspection": "2017-06-04",
      "position": {
        "lat": 35.1067,
        "lng": -101.724067
      }
    }
  ]
}
